MEAN_MOTION;ECCENTRICITY;INCLINATION;RA_OF_ASC_NODE;ARG_OF_PERICENTER;MEAN_ANOMALY;BSTAR;MEAN_MOTION_DOT;MEAN_MOTION_DDOT;TYPE
1.00272004;0.0002243;0.0146;153.7068;193.7709;98.3127;0;-2.99E-6;0;Intelsat
1.00271928;0.0002249;0.0138;150.046;197.7225;155.0229;0;-2.99E-6;0;Intelsat
1.00271509;0.0002268;0.0105;137.0419;213.206;102.0029;0;-3.02E-6;0;Intelsat
1.00271386;0.0002276;0.0113;134.9663;215.8868;199.34;0;-3.04E-6;0;Intelsat
1.00271086;0.0002283;0.0131;132.5419;220.0391;66.2399;0;-3.05E-6;0;Intelsat
1.00270852;0.0002289;0.0146;130.6191;223.8387;271.6796;0;-3.07E-6;0;Intelsat
1.0026386;0.0002674;0.0186;243.1939;107.1887;71.244;0;-3.08E-6;0;Intelsat
1.00271186;0.0002178;0.0187;241.5475;115.9916;80.6803;0;-3.08E-6;0;Intelsat
1.00273519;0.0002037;0.0179;239.9373;114.3862;170.9429;0;-3.09E-6;0;Intelsat
1.00270891;0.0002187;0.0163;236.0967;123.016;290.301;0;-3.09E-6;0;Intelsat
1.00270589;0.0002191;0.0123;227.3113;135.1053;291.959;0;-3.11E-6;0;Intelsat
1.00270464;0.0002197;0.0107;223.4969;139.7617;63.9702;0;-3.1E-6;0;Intelsat
1.00272797;0.0002243;0.0098;216.0088;145.4176;286.9148;0;-3.11E-6;0;Intelsat
1.0027276;0.0002248;0.0141;209.5957;152.7901;67.646;0;-3.1E-6;0;Intelsat
1.00272664;0.0002247;0.0176;203.0892;161.6738;298.4843;0;-3.1E-6;0;Intelsat
1.00272547;0.0002243;0.0175;200.3456;165.4622;67.0307;0;-3.09E-6;0;Intelsat
1.00272283;0.000223;0.0169;191.6641;176.9078;73.9246;0;-3.08E-6;0;Intelsat
1.00272061;0.0002224;0.0169;186.3535;186.7629;35.7601;0;-3.07E-6;0;Intelsat
1.00272023;0.0002221;0.002;183.6919;191.0479;178.7822;0;-3.07E-6;0;Intelsat
1.00271998;0.0002211;0.0157;179.6328;197.2859;268.8542;0;-3.07E-6;0;Intelsat
1.00271807;0.0002209;0.0178;189.1823;187.5035;78.1916;0;-3.06E-6;0;Intelsat
1.0027159;0.000219;0.018;182.0099;198.1583;54.4878;0;-3.05E-6;0;Intelsat
1.00271381;0.0002184;0.0193;178.52;202.4279;296.3251;0;-3.05E-6;0;Intelsat
1.00271291;0.0002178;0.0188;176.7894;204.9349;65.1327;0;-3.04E-6;0;Intelsat
1.00271235;0.0002167;0.018;173.4776;208.8696;142.2603;0;-3.05E-6;0;Intelsat
1.00271186;0.0002092;0.0173;170.876;205.6325;303.5733;0;-3.04E-6;0;Intelsat
1.00271122;0.0002088;0.0171;168.4543;208.0277;21.3022;0;-3.04E-6;0;Intelsat
1.00272941;0.0002142;0.0159;164.2201;216.4151;175.077;0;-3.04E-6;0;Intelsat
1.00272828;0.0002142;0.0148;162.756;218.4729;289.3152;0;-3.03E-6;0;Intelsat
1.00272695;0.0002136;0.0135;160.1419;221.6833;70.6596;0;-3.03E-6;0;Intelsat
1.00272351;0.0002112;0.0116;143.3095;239.742;75.2465;0;-3.01E-6;0;Intelsat
1.00272136;0.0002094;0.0133;139.6669;244.035;278.8441;0;-3.01E-6;0;Intelsat
1.00271974;0.0002091;0.0145;137.0479;246.8822;80.1261;0;-3.0E-6;0;Intelsat
1.00271744;0.0002075;0.0161;133.7761;250.6753;283.0293;0;-2.99E-6;0;Intelsat
1.00269543;0.0001967;0.0019;198.4196;184.4038;145.7456;0;-2.97E-6;0;Intelsat
1.00269669;0.0001944;0.0197;201.3844;181.077;285.6693;0;-2.97E-6;0;Intelsat
1.00269493;0.0001944;0.0116;208.2969;174.1201;81.1978;0;-2.95E-6;0;Intelsat
1.00269372;0.0001936;0.0089;187.7537;193.7818;159.7923;0;-2.95E-6;0;Intelsat
1.00269242;0.0001926;0.0013;192.752;188.2695;253.0268;0;-2.94E-6;0;Intelsat
1.00274681;0.0002019;0.0196;193.6314;178.4961;48.8641;0;-2.94E-6;0;Intelsat
1.00274134;0.0001972;0.0195;194.0731;178.2515;94.1263;0;-2.93E-6;0;Intelsat
1.00273566;0.000196;0.0189;185.37;186.4355;91.576;0;-2.91E-6;0;Intelsat
1.00273455;0.0001955;0.0187;181.9451;189.3812;161.464;0;-2.9E-6;0;Intelsat
1.00273292;0.0001975;0.0201;181.3724;190.5952;304.5997;0;-2.89E-6;0;Intelsat
1.00273105;0.0001968;0.0206;180.7294;191.6152;95.946;0;-2.89E-6;0;Intelsat
1.00272972;0.0001965;0.019;176.6058;195.2253;177.9675;0;-2.88E-6;0;Intelsat
1.00272864;0.0001987;0.0206;178.6642;193.4047;281.3963;0;-2.88E-6;0;Intelsat
1.00272647;0.000198;0.0197;175.8614;196.6137;76.4752;0;-2.87E-6;0;Intelsat
1.00272191;0.0001992;0.0168;168.107;204.4944;53.2276;0;-2.87E-6;0;Intelsat
1.00272112;0.0001994;0.0157;167.0358;205.7274;106.4231;0;-2.87E-6;0;Intelsat
1.00271855;0.0002018;0.0098;152.0059;220.8427;287.9864;0;-2.87E-6;0;Intelsat
1.00271612;0.0002015;0.0119;146.6463;226.415;87.7134;0;-2.87E-6;0;Intelsat
1.00271279;0.0002046;0.015;138.323;235.1841;314.2867;0;-2.88E-6;0;Intelsat
1.00271073;0.0002045;0.0168;135.3192;238.3049;93.1301;0;-2.88E-6;0;Intelsat
1.00270624;0.0002078;0.0206;126.2084;248.3439;33.7558;0;-2.91E-6;0;Intelsat
1.00270535;0.000208;0.021;125.4882;249.1557;98.1652;0;-2.91E-6;0;Intelsat
1.00273676;0.0002122;0.0253;118.2437;251.8407;41.0553;0;-2.94E-6;0;Intelsat
1.00273541;0.0002125;0.0258;116.9807;253.1039;109.286;0;-2.94E-6;0;Intelsat
1.00273079;0.0002174;0.03;109.1259;261.7453;68.9832;0;-2.98E-6;0;Intelsat
1.00273057;0.0002176;0.0302;108.7343;262.1398;86.325;0;-2.97E-6;0;Intelsat
1.00272586;0.000221;0.034;101.6952;271.1131;69.8608;0;-3.01E-6;0;Intelsat
1.00272553;0.0002202;0.0341;101.5098;272.7407;94.3138;0;-3.01E-6;0;Intelsat
1.00272127;0.0002229;0.0373;96.4738;280.7605;68.2359;0;-3.04E-6;0;Intelsat
1.00272105;0.0002234;0.0375;95.813;281.5153;94.6695;0;-3.03E-6;0;Intelsat
1.00269564;0.0001963;0.0161;257.7371;116.9724;102.0197;0;-3.05E-6;0;Intelsat
1.00268226;0.0002043;0.0134;255.4271;124.0524;71.56;0;-3.06E-6;0;Intelsat
1.0026809;0.0002048;0.0117;253.9903;125.6827;304.6117;0;-3.06E-6;0;Intelsat
1.00272397;0.0002386;0.0131;248.067;136.8307;51.1402;0;-3.05E-6;0;Intelsat
1.00272259;0.0002394;0.015;245.443;141.409;303.0407;0;-3.05E-6;0;Intelsat
1.00272154;0.0002406;0.015;246.3354;141.9737;86.1129;0;-3.04E-6;0;Intelsat
1.00271993;0.0002402;0.0163;244.5063;145.6891;302.5008;0;-3.03E-6;0;Intelsat
1.00271913;0.0002413;0.0161;245.3769;146.261;89.2056;0;-3.03E-6;0;Intelsat
1.00271695;0.0002413;0.0088;228.2984;165.6882;45.1593;0;-3.02E-6;0;Intelsat
1.00271672;0.0002416;0.0072;220.7577;173.7867;92.1065;0;-3.01E-6;0;Intelsat
1.00271662;0.0002426;0.0121;250.0614;146.2448;189.8488;0;-3.01E-6;0;Intelsat
1.00271703;0.0002417;0.0186;236.6869;162.3363;273.3632;0;-3.01E-6;0;Intelsat
1.00271709;0.0002387;0.0175;234.1534;168.3639;89.163;0;-3.0E-6;0;Intelsat
1.00271553;0.0002391;0.0169;231.9382;171.6821;271.542;0;-3.0E-6;0;Intelsat
1.0027153;0.0002391;0.0166;231.9577;171.7158;297.4056;0;-3.0E-6;0;Intelsat
1.00271419;0.0002374;0.016;226.7827;177.3812;66.5021;0;-3.0E-6;0;Intelsat
1.00271248;0.0002373;0.0155;225.9057;179.1597;273.0001;0;-3.0E-6;0;Intelsat
1.0027122;0.0002368;0.0151;225.257;179.9315;298.6976;0;-2.99E-6;0;Intelsat
1.00270905;0.0002384;0.0146;229.8622;172.0102;71.5811;0;-2.99E-6;0;Intelsat
1.00273731;0.0002261;0.0142;225.2886;173.7084;307.6971;0;-2.98E-6;0;Intelsat
1.00273653;0.0002254;0.0133;223.3397;175.758;25.3538;0;-2.98E-6;0;Intelsat
1.00273621;0.0002247;0.0135;220.5221;178.7832;76.981;0;-2.98E-6;0;Intelsat
1.002733;0.0002218;0.0119;209.1647;191.5025;53.041;0;-2.97E-6;0;Intelsat
1.00273286;0.0002215;0.0124;206.6621;194.0894;78.3349;0;-2.97E-6;0;Intelsat
1.00272947;0.0002184;0.0133;188.3914;213.4166;54.1541;0;-2.95E-6;0;Intelsat
1.00272923;0.000218;0.0134;187.1433;214.7037;80.0323;0;-2.95E-6;0;Intelsat
1.00272568;0.0002154;0.0201;134.5067;268.5984;41.3;0;-2.93E-6;0;Intelsat
1.00272416;0.0002133;0.0269;113.4876;289.8864;178.4073;0;-2.92E-6;0;Intelsat
1.00271859;0.0001867;0.0152;267.8223;137.5903;56.1831;0;-2.91E-6;0;Intelsat
1.00271229;0.0001897;0.015;267.72;136.6076;81.0644;0;-2.9E-6;0;Intelsat
1.0027021;0.0001911;0.013;267.2003;137.7524;44.9254;0;-2.88E-6;0;Intelsat
1.00270165;0.0001908;0.0127;267.0653;137.4863;85.6893;0;-2.88E-6;0;Intelsat
1.00269745;0.0001875;0.0108;268.2067;136.8904;62.022;0;-2.86E-6;0;Intelsat
1.0026971;0.0001873;0.0112;266.3225;138.7666;90.7671;0;-2.85E-6;0;Intelsat
1.00269496;0.0001852;0.0121;267.4858;137.1037;252.7457;0;-2.84E-6;0;Intelsat
1.00274465;0.0002005;0.013;263.2129;134.0578;303.0732;0;-2.84E-6;0;Intelsat
1.00273793;0.0001967;0.0136;265.4449;131.4961;104.4564;0;-2.83E-6;0;Intelsat
1.00273464;0.0001956;0.0152;266.238;130.3133;313.5317;0;-2.82E-6;0;Intelsat
1.00273258;0.0001949;0.0155;270.2268;126.35;85.1747;0;-2.81E-6;0;Intelsat
1.00272942;0.0001946;0.0168;270.0071;126.4374;309.5294;0;-2.8E-6;0;Intelsat
1.00272798;0.0001937;0.0149;277.4517;119.128;46.532;0;-2.8E-6;0;Intelsat
1.00272739;0.0001937;0.0171;273.4658;123.116;91.9804;0;-2.8E-6;0;Intelsat
1.00272262;0.000193;0.0137;286.5067;109.8751;56.0486;0;-2.8E-6;0;Intelsat
1.00272202;0.0001931;0.0152;282.7754;113.6886;98.7641;0;-2.8E-6;0;Intelsat
1.00269399;0.0001963;0.0163;277.8257;119.1972;48.2372;0;-2.81E-6;0;Intelsat
1.00269348;0.0001962;0.0159;279.9465;117.368;102.8193;0;-2.81E-6;0;Intelsat
1.00269138;0.0002006;0.0141;281.3527;116.8233;283.2316;0;-2.82E-6;0;Intelsat
1.00268966;0.0001994;0.0127;280.4687;118.0018;59.3059;0;-2.83E-6;0;Intelsat
1.00268791;0.0002015;0.011;281.2817;117.9346;201.1078;0;-2.84E-6;0;Intelsat
1.00270402;0.0002032;0.0126;280.9229;118.9128;60.9954;0;-2.86E-6;0;Intelsat
1.00273045;0.000201;0.0117;281.6655;114.121;281.3913;0;-2.88E-6;0;Intelsat
1.00272687;0.0001998;0.0101;283.6845;112.5478;323.746;0;-2.88E-6;0;Intelsat
1.0027213;0.0002028;0.0025;253.2054;144.8076;324.758;0;-2.92E-6;0;Intelsat
1.00272073;0.0002014;0.0048;97.7468;299.4022;102.2144;0;-2.92E-6;0;Intelsat
1.00271989;0.0002018;0.0026;103.3436;294.1645;198.4847;0;-2.94E-6;0;Intelsat
1.00271792;0.0002041;0.0039;107.3588;291.4131;326.806;0;-2.94E-6;0;Intelsat
1.00271622;0.000206;0.0035;108.765;290.8483;105.2188;0;-2.95E-6;0;Intelsat
1.00271413;0.0002079;0.0026;96.8879;304.1493;301.4235;0;-2.97E-6;0;Intelsat
1.00271201;0.0002108;0.0031;110.379;291.8961;107.0293;0;-2.98E-6;0;Intelsat
1.00271122;0.0002102;0.0017;288.2345;114.2497;212.0651;0;-2.98E-6;0;Intelsat
1.0027107;0.0002132;0.0019;73.6345;330.4255;249.3801;0;-2.98E-6;0;Intelsat
1.00269531;0.0001997;0.0136;277.9205;127.2434;84.7459;0;-2.99E-6;0;Intelsat
1.00269814;0.0001983;0.0127;277.4978;129.2288;197.6702;0;-2.99E-6;0;Intelsat
1.0026954;0.0002022;0.0111;280.3681;128.4508;89.0611;0;-2.99E-6;0;Intelsat
1.00269366;0.0002033;0.0125;278.8211;132.4307;289.3564;0;-2.99E-6;0;Intelsat
1.00269259;0.0002064;0.0136;287.101;124.9256;68.394;0;-2.98E-6;0;Intelsat
